HELIOS 2A               
1 28492U 04049A   22228.43220236  .00000383  00000+0  42605-4 0  9994
2 28492  98.2367 174.2687 0012924 242.8510 117.1374 14.93261999944078
CFESAT                  
1 30777U 07006F   22228.14870206  .00059362  00000+0  61031-3 0  9999
2 30777  35.4170 262.2471 0005465 218.4912 141.5433 15.63725708858418
SPIRALE A               
1 33751U 09008C   22227.23389325  .00000115  00000+0  55607-3 0  9998
2 33751   1.9973 200.4782 5438109 355.6857   0.9697  4.58857044197511
SPIRALE B               
1 33752U 09008D   22226.27525667  .00005741  00000+0  10189-2 0  9998
2 33752   2.1132  81.1510 6866005 216.6516  67.8326  2.82650651126719
SAPPHIRE                
1 39088U 13009C   22227.78244201  .00000053  00000+0  33931-4 0  9994
2 39088  98.4260  62.0539 0012584  99.3782 260.8826 14.34315905495625
